ONEWEB-0634             
1 56075U 23043AF  25294.78525656 -.00002714  00000+0 -72487-2 0  9996
2 56075  87.8969 306.8101 0002069  90.1904 269.9464 13.15528058125052
ONEWEB-0635             
1 56076U 23043AG  25294.78046781  .00000070  00000+0  15106-3 0  9991
2 56076  87.8962 306.7679 0001547  91.7801 268.3506 13.15550900125082
ONEWEB-0636             
1 56077U 23043AH  25294.77256397  .00000040  00000+0  71052-4 0  9997
2 56077  87.8960 306.7878 0001631  91.4596 268.6721 13.15547530125069
ONEWEB-0637             
1 56078U 23043AJ  25294.76620185 -.00000088  00000+0 -26802-3 0  9993
2 56078  87.8964 306.8033 0001805  82.7208 277.4127 13.15549320125083
ONEWEB-0647             
1 56079U 23043AK  25294.76147291 -.00000074  00000+0 -22979-3 0  9992
2 56079  87.8966 306.8177 0001730  96.5820 263.5507 13.15547783125073
ONEWEB-0651             
1 56080U 23043AL  25294.75669922 -.00000075  00000+0 -23393-3 0  9995
2 56080  87.8968 306.8109 0001628  86.2692 273.8624 13.15550784126273
ONEWEB-0718             
1 56081U 23043AM  25294.75197286 -.00000001  00000+0 -37054-4 0  9994
2 56081  87.8968 306.7927 0002382  87.0985 273.0418 13.15549326125084
ONEWEB-0561             
1 56710U 23068A   25294.63964441  .00000105  00000+0  22732-3 0  9991
2 56710  87.9198 322.0284 0001403 101.4071 258.7220 13.20770122118018
